{
  "type": "FeatureCollection",
  "features": [
    {
      "type": "Feature",
      "properties": {
        "norad_id": 41026,
        "name": "YAOGAN-28",
        "group": "resource",
        "lat": -77.13491206656848,
        "lon": 170.77852496870167,
        "alt_km": 507.9236365068391,
        "timestamp": "2025-12-25T07:00:33.699878+00:00",
        "meta_object_name": "YAOGAN-28",
        "meta_object_id": "2015-064A",
        "meta_epoch": "2025-12-24T23:28:52.679136",
        "meta_mean_motion": 15.24543703,
        "meta_eccentricity": 0.00126698,
        "meta_inclination": 97.2817,
        "meta_ra_of_asc_node": 136.427,
        "meta_arg_of_pericenter": 87.2679,
        "meta_mean_anomaly": 273.0009,
        "meta_ephemeris_type": 0,
        "meta_classification_type": "U",
        "meta_norad_cat_id": 41026,
        "meta_element_set_no": 999,
        "meta_rev_at_epoch": 56411,
        "meta_bstar": 0.00033899837,
        "meta_mean_motion_dot": 8.295e-05,
        "meta_mean_motion_ddot": 0,
        "tle_line1": "1 41026U 15064A   25358.97838749  .00008295  00000+0  33900-3 0  9998",
        "tle_line2": "2 41026  97.2817 136.4270 0012669  87.2679 273.0009 15.24543703564117"
      },
      "geometry": {
        "type": "Point",
        "coordinates": [
          170.77852496870167,
          -77.13491206656848
        ]
      }
    },
    {
      "type": "Feature",
      "properties": {
        "norad_id": 41038,
        "name": "YAOGAN-29",
        "group": "resource",
        "lat": -56.68439685976271,
        "lon": 34.89050264454711,
        "alt_km": 627.7457822948536,
        "timestamp": "2025-12-25T07:00:33.699888+00:00",
        "meta_object_name": "YAOGAN-29",
        "meta_object_id": "2015-069A",
        "meta_epoch": "2025-12-24T23:10:16.843872",
        "meta_mean_motion": 14.82895799,
        "meta_eccentricity": 8.962e-05,
        "meta_inclination": 98.0205,
        "meta_ra_of_asc_node": 22.1752,
        "meta_arg_of_pericenter": 165.5165,
        "meta_mean_anomaly": 194.6074,
        "meta_ephemeris_type": 0,
        "meta_classification_type": "U",
        "meta_norad_cat_id": 41038,
        "meta_element_set_no": 999,
        "meta_rev_at_epoch": 54480,
        "meta_bstar": 9.7563493e-05,
        "meta_mean_motion_dot": 7.37e-06,
        "meta_mean_motion_ddot": 0,
        "tle_line1": "1 41038U 15069A   25358.96547273  .00000737  00000+0  97563-4 0  9993",
        "tle_line2": "2 41038  98.0205  22.1752 0000896 165.5165 194.6074 14.82895799544807"
      },
      "geometry": {
        "type": "Point",
        "coordinates": [
          34.89050264454711,
          -56.68439685976271
        ]
      }
    },
    {
      "type": "Feature",
      "properties": {
        "norad_id": 41167,
        "name": "KENT RIDGE 1",
        "group": "resource",
        "lat": -1.1162424919733342,
        "lon": 113.8155489256549,
        "alt_km": 494.0532853403638,
        "timestamp": "2025-12-25T07:00:33.699898+00:00",
        "meta_object_name": "KENT RIDGE 1",
        "meta_object_id": "2015-077B",
        "meta_epoch": "2025-12-24T23:09:45.505728",
        "meta_mean_motion": 15.21725755,
        "meta_eccentricity": 0.00085477,
        "meta_inclination": 14.9791,
        "meta_ra_of_asc_node": 120.4179,
        "meta_arg_of_pericenter": 303.3992,
        "meta_mean_anomaly": 56.5512,
        "meta_ephemeris_type": 0,
        "meta_classification_type": "U",
        "meta_norad_cat_id": 41167,
        "meta_element_set_no": 999,
        "meta_rev_at_epoch": 55450,
        "meta_bstar": 0.00017266312,
        "meta_mean_motion_dot": 4.787e-05,
        "meta_mean_motion_ddot": 0,
        "tle_line1": "1 41167U 15077B   25358.96511002  .00004787  00000+0  17266-3 0  9996",
        "tle_line2": "2 41167  14.9791 120.4179 0008547 303.3992  56.5512 15.21725755554502"
      },
      "geometry": {
        "type": "Point",
        "coordinates": [
          113.8155489256549,
          -1.1162424919733342
        ]
      }
    },
    {
      "type": "Feature",
      "properties": {
        "norad_id": 41194,
        "name": "GAOFEN-4",
        "group": "resource",
        "lat": -0.15517307212879805,
        "lon": -55.07572620706833,
        "alt_km": 35794.18419438818,
        "timestamp": "2025-12-25T07:00:33.699910+00:00",
        "meta_object_name": "GAOFEN-4",
        "meta_object_id": "2015-083A",
        "meta_epoch": "2025-12-24T22:09:41.500800",
        "meta_mean_motion": 1.00270212,
        "meta_eccentricity": 0.00028295,
        "meta_inclination": 0.1998,
        "meta_ra_of_asc_node": 81.8693,
        "meta_arg_of_pericenter": 93.4285,
        "meta_mean_anomaly": 356.5295,
        "meta_ephemeris_type": 0,
        "meta_classification_type": "U",
        "meta_norad_cat_id": 41194,
        "meta_element_set_no": 999,
        "meta_rev_at_epoch": 3678,
        "meta_bstar": 0,
        "meta_mean_motion_dot": -3.14e-06,
        "meta_mean_motion_ddot": 0,
        "tle_line1": "1 41194U 15083A   25358.92339700 -.00000314  00000+0  00000+0 0  9999",
        "tle_line2": "2 41194   0.1998  81.8693 0002829  93.4285 356.5295  1.00270212 36789"
      },
      "geometry": {
        "type": "Point",
        "coordinates": [
          -55.07572620706833,
          -0.15517307212879805
        ]
      }
    },
    {
      "type": "Feature",
      "properties": {
        "norad_id": 41240,
        "name": "JASON-3",
        "group": "resource",
        "lat": 7.790895682558675,
        "lon": -52.05335440080037,
        "alt_km": 1312.7691718867836,
        "timestamp": "2025-12-25T07:00:33.699921+00:00",
        "meta_object_name": "JASON-3",
        "meta_object_id": "2016-002A",
        "meta_epoch": "2025-12-24T20:48:04.656384",
        "meta_mean_motion": 12.87627069,
        "meta_eccentricity": 0.00072915,
        "meta_inclination": 66.0404,
        "meta_ra_of_asc_node": 132.3284,
        "meta_arg_of_pericenter": 271.4999,
        "meta_mean_anomaly": 88.5185,
        "meta_ephemeris_type": 0,
        "meta_classification_type": "U",
        "meta_norad_cat_id": 41240,
        "meta_element_set_no": 999,
        "meta_rev_at_epoch": 46480,
        "meta_bstar": 0.00011652902,
        "meta_mean_motion_dot": -3.3e-07,
        "meta_mean_motion_ddot": 0,
        "tle_line1": "1 41240U 16002A   25358.86672056 -.00000033  00000+0  11653-3 0  9998",
        "tle_line2": "2 41240  66.0404 132.3284 0007291 271.4999  88.5185 12.87627069464801"
      },
      "geometry": {
        "type": "Point",
        "coordinates": [
          -52.05335440080037,
          7.790895682558675
        ]
      }
    },
    {
      "type": "Feature",
      "properties": {
        "norad_id": 41335,
        "name": "SENTINEL-3A",
        "group": "resource",
        "lat": -11.745453021302867,
        "lon": 65.9387982951401,
        "alt_km": 807.1814651226032,
        "timestamp": "2025-12-25T07:00:33.699931+00:00",
        "meta_object_name": "SENTINEL-3A",
        "meta_object_id": "2016-011A",
        "meta_epoch": "2025-12-24T20:57:58.335840",
        "meta_mean_motion": 14.26735262,
        "meta_eccentricity": 8.91e-05,
        "meta_inclination": 98.6298,
        "meta_ra_of_asc_node": 63.7168,
        "meta_arg_of_pericenter": 97.2198,
        "meta_mean_anomaly": 262.9084,
        "meta_ephemeris_type": 0,
        "meta_classification_type": "U",
        "meta_norad_cat_id": 41335,
        "meta_element_set_no": 999,
        "meta_rev_at_epoch": 51320,
        "meta_bstar": 7.5173009e-05,
        "meta_mean_motion_dot": 1.38e-06,
        "meta_mean_motion_ddot": 0,
        "tle_line1": "1 41335U 16011A   25358.87359185  .00000138  00000+0  75173-4 0  9992",
        "tle_line2": "2 41335  98.6298  63.7168 0000891  97.2198 262.9084 14.26735262513205"
      },
      "geometry": {
        "type": "Point",
        "coordinates": [
          65.9387982951401,
          -11.745453021302867
        ]
      }
    },
    {
      "type": "Feature",
      "properties": {
        "norad_id": 41556,
        "name": "ZIYUAN 3-02 (ZY 3-02)",
        "group": "resource",
        "lat": 43.67666941003484,
        "lon": 66.11756283730594,
        "alt_km": 505.66430829885303,
        "timestamp": "2025-12-25T07:00:33.699941+00:00",
        "meta_object_name": "ZIYUAN 3-02 (ZY 3-02)",
        "meta_object_id": "2016-033A",
        "meta_epoch": "2025-12-24T22:55:19.666272",
        "meta_mean_motion": 15.21225207,
        "meta_eccentricity": 0.00114229,
        "meta_inclination": 97.4024,
        "meta_ra_of_asc_node": 72.9174,
        "meta_arg_of_pericenter": 200.6198,
        "meta_mean_anomaly": 159.4579,
        "meta_ephemeris_type": 0,
        "meta_classification_type": "U",
        "meta_norad_cat_id": 41556,
        "meta_element_set_no": 999,
        "meta_rev_at_epoch": 53149,
        "meta_bstar": 0.00037495549,
        "meta_mean_motion_dot": 8.317e-05,
        "meta_mean_motion_ddot": 0,
        "tle_line1": "1 41556U 16033A   25358.95508873  .00008317  00000+0  37496-3 0  9992",
        "tle_line2": "2 41556  97.4024  72.9174 0011422 200.6198 159.4579 15.21225207531494"
      },
      "geometry": {
        "type": "Point",
        "coordinates": [
          66.11756283730594,
          43.67666941003484
        ]
      }
    }
  ]
}